{"type": "FeatureCollection", "features": [{"type": "Feature", "properties": {"name": "outside KV"}, "geometry": {"type": "MultiPolygon", "coordinates": [[[[95.0, -3.0], [95.0, 10.0], [108.0, 10.0], [108.0, -3.0], [95.0, -3.0]], [[101.25762, 2.91924], [101.25597, 2.92515], [101.25681, 2.93666], [101.25531, 2.93797], [101.2566, 2.93948], [101.25652, 2.95004], [101.25325, 2.96509], [101.23788, 2.95516], [101.23174, 2.94678], [101.23207, 2.93924], [101.22984, 2.92814], [101.23252, 2.92554], [101.23181, 2.92157], [101.23449, 2.9202], [101.23149, 2.91861], [101.23242, 2.91152], [101.23404, 2.91125], [101.23224, 2.90454], [101.23392, 2.89921], [101.2493, 2.90303], [101.25535, 2.90846], [101.25762, 2.91924]], [[101.27467, 2.91708], [101.2846, 2.93679], [101.2914, 2.94548], [101.29292, 2.95115], [101.29877, 2.96199], [101.30221, 2.97337], [101.30086, 2.97413], [101.29305, 2.97192], [101.28965, 2.96795], [101.29002, 2.96621], [101.2697, 2.95307], [101.26299, 2.94672], [101.26154, 2.93853], [101.26322, 2.92449], [101.26253, 2.91198], [101.26868, 2.9117], [101.27467, 2.91708]], [[101.27749, 2.96002], [101.28045, 2.96823], [101.27657, 2.9659], [101.26944, 2.95417], [101.27749, 2.96002]], [[101.27882, 2.96042], [101.28722, 2.96522], [101.29293, 2.97306], [101.30341, 2.97561], [101.3042, 2.97765], [101.30186, 2.98017], [101.28977, 2.97504], [101.28108, 2.9676], [101.27882, 2.96042]], [[101.31091, 2.984], [101.309, 2.98505], [101.30346, 2.98164], [101.30712, 2.98049], [101.31091, 2.984]], [[101.32091, 2.99058], [101.31276, 2.98679], [101.31142, 2.98495], [101.31245, 2.98461], [101.32091, 2.99058]], [[101.25928, 3.01488], [101.2578, 3.01576], [101.25339, 3.01374], [101.2512, 3.01474], [101.25305, 3.01566], [101.24718, 3.01591], [101.23854, 3.01237], [101.22656, 3.00551], [101.2266, 3.00326], [101.22378, 3.00358], [101.22204, 3.00152], [101.22307, 2.99691], [101.2281, 2.99332], [101.22609, 2.99214], [101.2221, 2.99416], [101.22012, 2.99326], [101.21893, 2.9849], [101.22229, 2.98331], [101.21822, 2.98284], [101.21412, 2.96829], [101.217, 2.96438], [101.22353, 2.96463], [101.22832, 2.96981], [101.22974, 2.97565], [101.23112, 2.97598], [101.22919, 2.97698], [101.23085, 2.97743], [101.22994, 2.97903], [101.23212, 2.97745], [101.23496, 2.9792], [101.24182, 2.98781], [101.25774, 2.99882], [101.2594, 3.00183], [101.25928, 3.01488]], [[101.33383, 3.04843], [101.33593, 3.05088], [101.33595, 3.06211], [101.33234, 3.06694], [101.3273, 3.06872], [101.32013, 3.07007], [101.30741, 3.06655], [101.30299, 3.06333], [101.30211, 3.06049], [101.30006, 3.06012], [101.2942, 3.0498], [101.28633, 3.02786], [101.28736, 3.02623], [101.28018, 3.01296], [101.28202, 3.00953], [101.27995, 3.01031], [101.27546, 3.0034], [101.27514, 3.00009], [101.27377, 2.99987], [101.27398, 2.99815], [101.27304, 2.99908], [101.26223, 2.97661], [101.26042, 2.9636], [101.26158, 2.9626], [101.26072, 2.95475], [101.26245, 2.95191], [101.26757, 2.95421], [101.2766, 2.9679], [101.28229, 2.96998], [101.28887, 2.97601], [101.30018, 2.98042], [101.30949, 2.98682], [101.33064, 2.99503], [101.334, 2.99928], [101.33768, 3.00034], [101.33656, 3.01344], [101.33314, 3.01769], [101.33656, 3.01761], [101.33291, 3.03635], [101.33383, 3.04843]], [[101.26903, 3.01626], [101.26858, 3.02164], [101.26539, 3.01859], [101.26416, 3.01357], [101.26502, 3.00958], [101.26903, 3.01626]], [[101.26513, 3.05752], [101.26665, 3.05786], [101.26491, 3.05925], [101.25906, 3.05942], [101.25562, 3.05981], [101.24277, 3.05496], [101.22894, 3.04173], [101.21717, 3.01891], [101.21498, 3.01072], [101.2168, 3.00692], [101.22278, 3.00722], [101.24484, 3.01758], [101.25702, 3.01941], [101.27427, 3.03659], [101.27717, 3.04212], [101.27403, 3.04992], [101.27032, 3.05519], [101.26513, 3.05752]], [[101.41525, 3.19395], [101.40042, 3.1935], [101.40023, 3.18784], [101.36884, 3.18776], [101.36874, 3.17758], [101.34153, 3.17724], [101.34157, 3.16338], [101.32609, 3.16452], [101.32245, 3.16112], [101.31302, 3.17123], [101.3059, 3.16806], [101.30703, 3.14826], [101.30893, 3.14267], [101.31042, 3.14048], [101.31202, 3.14083], [101.30939, 3.13894], [101.31611, 3.11652], [101.3199, 3.11373], [101.3257, 3.11409], [101.32721, 3.11583], [101.32759, 3.1112], [101.32995, 3.10941], [101.32816, 3.10814], [101.33916, 3.09394], [101.34383, 3.08878], [101.3486, 3.08743], [101.351, 3.08837], [101.35025, 3.08631], [101.3542, 3.07899], [101.35774, 3.07806], [101.35513, 3.07625], [101.3591, 3.07319], [101.35663, 3.0723], [101.35854, 3.05632], [101.35902, 3.05415], [101.36365, 3.05032], [101.36347, 3.04792], [101.35834, 3.05167], [101.35788, 3.05047], [101.35685, 3.03294], [101.35903, 3.02881], [101.35722, 3.03035], [101.35775, 3.02819], [101.35602, 3.02822], [101.35572, 3.0212], [101.35745, 3.02056], [101.35798, 3.01086], [101.36047, 3.00315], [101.36404, 2.99967], [101.37481, 3.00233], [101.38507, 3.00212], [101.38869, 2.99976], [101.39305, 2.99237], [101.3931, 2.98596], [101.38989, 2.97852], [101.37785, 2.97095], [101.36915, 2.96066], [101.36262, 2.93701], [101.35778, 2.92787], [101.35764, 2.91798], [101.36762, 2.90733], [101.37388, 2.90685], [101.3781, 2.91059], [101.38301, 2.91993], [101.3845, 2.93428], [101.3863, 2.93853], [101.40218, 2.95418], [101.40804, 2.97312], [101.41494, 2.97779], [101.41926, 2.97878], [101.42682, 2.97619], [101.43791, 2.96858], [101.43838, 2.96552], [101.43664, 2.96322], [101.42712, 2.95879], [101.42255, 2.95372], [101.44481, 2.9539], [101.4506, 2.95604], [101.46736, 2.95626], [101.47211, 2.95457], [101.52504, 2.95144], [101.55159, 2.96395], [101.5513, 2.95675], [101.56398, 2.9639], [101.56178, 2.9687], [101.5758606546442, 2.978996825636663], [101.57726507439858, 2.979378203120325], [101.60146, 2.93814], [101.6453, 2.8444], [101.6634, 2.8275], [101.66941, 2.82667], [101.67035, 2.82457], [101.68152, 2.81765], [101.63247, 2.75861], [101.63164, 2.73034], [101.59444, 2.72921], [101.59513, 2.66155], [101.59643, 2.65027], [101.59566, 2.64772], [101.58929, 2.64605], [101.60827, 2.6357], [101.62824, 2.63383], [101.63227, 2.63083], [101.67212, 2.61973], [101.68526, 2.612], [101.68851, 2.6045], [101.68758, 2.6035], [101.69218, 2.59888], [101.70506, 2.59618], [101.70992, 2.59758], [101.70974, 2.60216], [101.70244, 2.60664], [101.70168, 2.61156], [101.70717, 2.61722], [101.71933, 2.62415], [101.72244, 2.62369], [101.72575, 2.6202], [101.72798, 2.62056], [101.72892, 2.62883], [101.72341, 2.63928], [101.72428, 2.64278], [101.72908, 2.64934], [101.7454, 2.65765], [101.74322, 2.66881], [101.73882, 2.67244], [101.73867, 2.67658], [101.7453, 2.68443], [101.75116, 2.68612], [101.75014, 2.68939], [101.75349, 2.70075], [101.75839, 2.70238], [101.76121, 2.70694], [101.74993, 2.87321], [101.78518, 2.87223], [101.88177, 2.86999], [101.92294, 2.96757], [101.92415, 2.97603], [101.92949, 2.98268], [101.92962, 2.9913], [101.93197, 3.00133], [101.93998, 3.0014], [101.9429, 3.00827], [101.94016, 3.01538], [101.94079, 3.01918], [101.94673, 3.01988], [101.9578, 3.02902], [101.96216, 3.02712], [101.965, 3.02936], [101.96865, 3.02848], [101.97075, 3.0325], [101.96773, 3.04875], [101.96535, 3.05282], [101.96771, 3.06033], [101.96075, 3.06408], [101.96329, 3.08021], [101.95905, 3.08346], [101.95549, 3.09935], [101.94969, 3.10823], [101.94944, 3.11489], [101.95705, 3.11824], [101.9622, 3.12676], [101.96218, 3.13666], [101.96545, 3.14352], [101.95743, 3.15053], [101.95719, 3.15772], [101.94721, 3.1712], [101.94385, 3.18491], [101.93984, 3.18992], [101.94701, 3.19855], [101.94504, 3.2097], [101.94856, 3.21224], [101.94552, 3.22744], [101.93795, 3.24101], [101.92935, 3.24877], [101.93178, 3.2552], [101.93076, 3.25717], [101.92666, 3.25848], [101.92258, 3.2639], [101.91615, 3.2633], [101.91272, 3.26453], [101.90841, 3.26334], [101.90578, 3.26799], [101.89625, 3.2709], [101.89203, 3.27072], [101.88871, 3.26663], [101.88358, 3.26574], [101.87528, 3.27106], [101.87366, 3.27477], [101.85643, 3.27635], [101.85288, 3.27981], [101.85281, 3.28288], [101.84558, 3.29124], [101.83807, 3.29155], [101.82388, 3.29936], [101.82082, 3.30406], [101.81148, 3.31244], [101.80575, 3.32013], [101.80648, 3.3249], [101.80055, 3.32817], [101.79654, 3.33605], [101.78187, 3.3418], [101.77944, 3.34646], [101.78109, 3.35344], [101.77743, 3.36193], [101.76959, 3.36538], [101.75944, 3.37418], [101.7571, 3.37516], [101.75049, 3.37393], [101.7433, 3.37619], [101.73767, 3.37611], [101.73411, 3.38113], [101.72904, 3.38111], [101.72261, 3.38804], [101.7187, 3.39032], [101.71624, 3.38993], [101.71116, 3.38212], [101.71059, 3.3768], [101.7056, 3.36718], [101.70043, 3.36228], [101.69848, 3.35498], [101.68247, 3.33599], [101.67962, 3.33511], [101.67881, 3.34024], [101.67614, 3.33993], [101.67119, 3.3346], [101.66891, 3.32917], [101.66324, 3.3327], [101.65582, 3.33256], [101.64912, 3.3371], [101.63783, 3.32388], [101.63127, 3.32695], [101.62728, 3.32494], [101.62581, 3.32604], [101.62423, 3.32451], [101.61506, 3.32436], [101.60018, 3.32771], [101.59767, 3.32994], [101.59063, 3.3298], [101.58784, 3.34077], [101.58964, 3.34358], [101.58613, 3.34544], [101.58305, 3.34499], [101.57733, 3.34094], [101.56799, 3.34061], [101.56702, 3.34321], [101.562, 3.34381], [101.55922, 3.34637], [101.55667, 3.34487], [101.54589, 3.3505], [101.52234, 3.34832], [101.51246, 3.35221], [101.50136, 3.3519], [101.49381, 3.36869], [101.48537, 3.36953], [101.48001, 3.37292], [101.47797, 3.38518], [101.46843, 3.38775], [101.46551, 3.39587], [101.4629, 3.39672], [101.46291, 3.4], [101.45862, 3.4012], [101.45994, 3.40278], [101.45375, 3.40072], [101.44994, 3.40144], [101.44343, 3.39724], [101.44294, 3.35754], [101.44514, 3.35707], [101.44505, 3.33441], [101.42964, 3.30537], [101.43676, 3.30267], [101.43857, 3.29989], [101.46158, 3.2999], [101.46176, 3.27607], [101.49196, 3.27626], [101.49234, 3.23104], [101.49196, 3.18654], [101.48929, 3.18858], [101.48687, 3.19403], [101.4758, 3.19536], [101.47125, 3.19789], [101.46209, 3.19366], [101.42695, 3.19372], [101.41525, 3.19395]], [[101.38651, 2.98713], [101.38933, 2.99131], [101.38537, 2.99337], [101.35674, 2.99539], [101.35504, 2.99348], [101.35475, 2.9958], [101.35315, 2.99616], [101.34236, 2.99179], [101.33104, 2.98226], [101.33156, 2.98095], [101.33498, 2.98116], [101.33506, 2.97988], [101.32635, 2.97954], [101.31426, 2.96786], [101.31285, 2.96526], [101.31417, 2.964], [101.31242, 2.96448], [101.31004, 2.96232], [101.28797, 2.92382], [101.28409, 2.91291], [101.28505, 2.91157], [101.28362, 2.91226], [101.27508, 2.89619], [101.26932, 2.89278], [101.2695, 2.88872], [101.27804, 2.88068], [101.29574, 2.89074], [101.30829, 2.90586], [101.318, 2.91233], [101.3266, 2.91065], [101.34176, 2.89448], [101.34698, 2.89746], [101.34376, 2.9055], [101.335, 2.91616], [101.3352, 2.92443], [101.3398, 2.92769], [101.3476, 2.9298], [101.35103, 2.93359], [101.35726, 2.94439], [101.36592, 2.96894], [101.3727, 2.97807], [101.38651, 2.98713]], [[101.37466, 2.9744], [101.38196, 2.97926], [101.38446, 2.98239], [101.37844, 2.97997], [101.37466, 2.9744]]], [[[101.47345, 3.16201], [101.43297, 3.18929], [101.42695, 3.19372], [101.47345, 3.16201]]], [[[101.73453462582157, 2.996871354188481], [101.72582, 3.00629], [101.73381, 2.99815], [101.73453462582157, 2.996871354188481]]], [[[101.74260556164523, 2.980897678895931], [101.73612028245329, 2.9940733677652043], [101.74188, 2.98391], [101.74260556164523, 2.980897678895931]]], [[[101.66942916897409, 2.970501609687709], [101.66958, 2.97063], [101.67002741645527, 2.970642436085933], [101.66942916897409, 2.970501609687709]]], [[[101.69854, 2.97171], [101.69905234341502, 2.9722146756904486], [101.69829, 2.96828], [101.69854, 2.97171]]], [[[101.70644, 2.98313], [101.7067, 2.9803], [101.70597563311034, 2.9796008116385906], [101.70644, 2.98313]]], [[[101.70324, 2.97873], [101.68541, 2.97107], [101.70430276800907, 2.980191306012479], [101.70324, 2.97873]]], [[[101.52924, 3.04796], [101.52956705993664, 3.0438224322301615], [101.52899061293616, 3.0477063620202935], [101.52924, 3.04796]]], [[[101.53657, 3.03924], [101.53017, 3.03976], [101.53013447601002, 3.0399993501619704], [101.53887148006578, 3.0403082341437395], [101.53657, 3.03924]]], [[[101.53977, 3.04034], [101.54102, 3.03641], [101.53928523368607, 3.040322861796982], [101.53977, 3.04034]]], [[[101.55397, 3.02844], [101.55207, 3.02523], [101.55334154805465, 3.0287105147481337], [101.55397, 3.02844]]], [[[101.57145671100677, 2.97831956703182], [101.56966, 2.97783], [101.56463, 2.97876], [101.57145671100677, 2.97831956703182]]], [[[101.731, 3.03872], [101.73075, 3.05697], [101.73125, 3.03426], [101.72938, 3.0409], [101.731, 3.03872]]], [[[101.81040204985133, 3.209104692194037], [101.8104, 3.20848], [101.80208, 3.18927], [101.81040204985133, 3.209104692194037]]], [[[101.81064, 3.22137], [101.81392, 3.22687], [101.81064683802327, 3.2210385045242234], [101.81064, 3.22137]]], [[[101.81606, 3.2357], [101.82777, 3.25183], [101.81589952694786, 3.23503786119143], [101.81606, 3.2357]]], [[[101.84869277835412, 3.2766987239590577], [101.84821, 3.27634], [101.84798770533041, 3.276350795767618], [101.84869277835412, 3.2766987239590577]]], [[[101.6174, 3.21036], [101.6287156922071, 3.21156532810473], [101.62853, 3.21138], [101.6174, 3.21036]]], [[[101.71166, 3.05761], [101.71372, 3.05778], [101.71545, 3.05742], [101.71166, 3.05761]]], [[[101.49701, 3.2252], [101.50225646218641, 3.222974228163341], [101.50166, 3.22266], [101.49701, 3.2252]]], [[[101.50414189335312, 3.2239675108661108], [101.50488, 3.22519], [101.50636450881633, 3.2251384289741227], [101.50414189335312, 3.2239675108661108]]], [[[101.5080852850955, 3.2250786501455657], [101.50891, 3.22505], [101.50920973031056, 3.2247695243132477], [101.5080852850955, 3.2250786501455657]]], [[[101.66725, 3.24432], [101.66480498305084, 3.246721355932204], [101.66641, 3.246], [101.67329, 3.23577], [101.66725, 3.24432]]], [[[101.73839, 3.2188], [101.73964, 3.2262], [101.73840246713564, 3.2187947630213873], [101.73839, 3.2188]]], [[[101.75657, 3.19969], [101.75394119895927, 3.2033912000212394], [101.754, 3.20339], [101.75657, 3.19969]]], [[[101.74894569886958, 3.178995723173603], [101.75532, 3.18322], [101.74964, 3.1789], [101.74894569886958, 3.178995723173603]]], [[[101.73353600081582, 3.1796671203494307], [101.73274, 3.18123], [101.73359, 3.17978], [101.73353600081582, 3.1796671203494307]]], [[[101.73881043969448, 3.1677546220195745], [101.73457, 3.16784], [101.73879, 3.16786], [101.73881043969448, 3.1677546220195745]]], [[[101.7490159201664, 3.164264130348653], [101.73924, 3.16554], [101.74813, 3.16521], [101.7490159201664, 3.164264130348653]]], [[[101.63326, 3.21618], [101.63363, 3.21994], [101.63363996100946, 3.2199364312918854], [101.63363, 3.21647], [101.63304447146018, 3.2158856195553622], [101.63326, 3.21618]]], [[[101.63816, 3.22258], [101.63617, 3.21903], [101.63822862261912, 3.2228458040690136], [101.63816, 3.22258]]], [[[101.63895, 3.22564], [101.63874760649698, 3.2248560454186648], [101.63696219810042, 3.229962313432799], [101.63895, 3.22564]]], [[[101.64032, 3.23452], [101.63648009130226, 3.2313411388755426], [101.63647, 3.23137], [101.64032, 3.23452]]], [[[101.66044, 3.24444], [101.65756, 3.24396], [101.66048042682927, 3.2454910975609725], [101.66044, 3.24444]]], [[[101.66416130567286, 3.2470106491357917], [101.66287406092941, 3.2467460125260965], [101.66374, 3.2472], [101.66416130567286, 3.2470106491357917]]]]}}]}